[{"OBJECT_NAME":"QIANFAN-13","OBJECT_ID":"2024-140N","EPOCH":"2026-03-09T21:22:12.316512","MEAN_MOTION":13.51002023,"ECCENTRICITY":0.00119732,"INCLINATION":88.9704,"RA_OF_ASC_NODE":290.3949,"ARG_OF_PERICENTER":323.8213,"MEAN_ANOMALY":36.2127,"EPHEMERIS_TYPE":0,"CLASSIFICATION_TYPE":"U","NORAD_CAT_ID":60391,"ELEMENT_SET_NO":999,"REV_AT_EPOCH":7903,"BSTAR":9.7414778e-5,"MEAN_MOTION_DOT":7.5e-7,"MEAN_MOTION_DDOT":0},{"OBJECT_NAME":"FENGYUN 1C DEB","OBJECT_ID":"1999-025ESC","EPOCH":"2026-03-06T02:23:30.153120","MEAN_MOTION":13.6241223,"ECCENTRICITY":0.04278825,"INCLINATION":99.0921,"RA_OF_ASC_NODE":24.089,"ARG_OF_PERICENTER":28.973,"MEAN_ANOMALY":333.4454,"EPHEMERIS_TYPE":0,"CLASSIFICATION_TYPE":"U","NORAD_CAT_ID":38493,"ELEMENT_SET_NO":999,"REV_AT_EPOCH":57633,"BSTAR":0.00080637115,"MEAN_MOTION_DOT":1.119e-5,"MEAN_MOTION_DDOT":0}]
